{
  "type": "FeatureCollection",
  "features": [
    {
      "type": "Feature",
      "properties": {
        "norad_id": 28890,
        "name": "BEIJING 1",
        "group": "dmc",
        "lat": -5.282144401891306,
        "lon": 122.99558891164213,
        "alt_km": 691.9756983838579,
        "timestamp": "2025-12-20T16:47:35.957726+00:00",
        "meta_object_name": "BEIJING 1",
        "meta_object_id": "2005-043A",
        "meta_epoch": "2025-12-20T13:32:08.320416",
        "meta_mean_motion": 14.63373328,
        "meta_eccentricity": 0.0015692,
        "meta_inclination": 98.2657,
        "meta_ra_of_asc_node": 122.0895,
        "meta_arg_of_pericenter": 118.2075,
        "meta_mean_anomaly": 242.0714,
        "meta_ephemeris_type": 0,
        "meta_classification_type": "U",
        "meta_norad_cat_id": 28890,
        "meta_element_set_no": 999,
        "meta_rev_at_epoch": 7452,
        "meta_bstar": 8.7407e-05,
        "meta_mean_motion_dot": 4.04e-06,
        "meta_mean_motion_ddot": 0,
        "tle_line1": "1 28890U 05043A   25354.56398519  .00000404  00000+0  87407-4 0  9991",
        "tle_line2": "2 28890  98.2657 122.0895 0015692 118.2075 242.0714 14.63373328 74528"
      },
      "geometry": {
        "type": "Point",
        "coordinates": [
          122.99558891164213,
          -5.282144401891306
        ]
      }
    },
    {
      "type": "Feature",
      "properties": {
        "norad_id": 33320,
        "name": "HUANJING 1A (HJ-1A)",
        "group": "dmc",
        "lat": -54.459192014798326,
        "lon": 151.8158383325578,
        "alt_km": 635.1220029088099,
        "timestamp": "2025-12-20T16:47:35.957749+00:00",
        "meta_object_name": "HUANJING 1A (HJ-1A)",
        "meta_object_id": "2008-041A",
        "meta_epoch": "2025-12-20T12:29:53.772000",
        "meta_mean_motion": 14.83416523,
        "meta_eccentricity": 0.001961,
        "meta_inclination": 97.6535,
        "meta_ra_of_asc_node": 342.4942,
        "meta_arg_of_pericenter": 9.7033,
        "meta_mean_anomaly": 350.4556,
        "meta_ephemeris_type": 0,
        "meta_classification_type": "U",
        "meta_norad_cat_id": 33320,
        "meta_element_set_no": 999,
        "meta_rev_at_epoch": 93191,
        "meta_bstar": 0.0001459,
        "meta_mean_motion_dot": 1.15e-05,
        "meta_mean_motion_ddot": 0,
        "tle_line1": "1 33320U 08041A   25354.52076125  .00001150  00000+0  14590-3 0  9999",
        "tle_line2": "2 33320  97.6535 342.4942 0019610   9.7033 350.4556 14.83416523931913"
      },
      "geometry": {
        "type": "Point",
        "coordinates": [
          151.8158383325578,
          -54.459192014798326
        ]
      }
    },
    {
      "type": "Feature",
      "properties": {
        "norad_id": 33321,
        "name": "HUANJING 1B (HJ-1B)",
        "group": "dmc",
        "lat": 77.52006756854715,
        "lon": -50.98955191696763,
        "alt_km": 589.9096460791889,
        "timestamp": "2025-12-20T16:47:35.957764+00:00",
        "meta_object_name": "HUANJING 1B (HJ-1B)",
        "meta_object_id": "2008-041B",
        "meta_epoch": "2025-12-20T13:11:48.779232",
        "meta_mean_motion": 14.82842338,
        "meta_eccentricity": 0.0038022,
        "meta_inclination": 97.6394,
        "meta_ra_of_asc_node": 346.1989,
        "meta_arg_of_pericenter": 51.114,
        "meta_mean_anomaly": 309.3455,
        "meta_ephemeris_type": 0,
        "meta_classification_type": "U",
        "meta_norad_cat_id": 33321,
        "meta_element_set_no": 999,
        "meta_rev_at_epoch": 93193,
        "meta_bstar": 0.0001914,
        "meta_mean_motion_dot": 1.517e-05,
        "meta_mean_motion_ddot": 0,
        "tle_line1": "1 33321U 08041B   25354.54987013  .00001517  00000+0  19140-3 0  9992",
        "tle_line2": "2 33321  97.6394 346.1989 0038022  51.1140 309.3455 14.82842338931936"
      },
      "geometry": {
        "type": "Point",
        "coordinates": [
          -50.98955191696763,
          77.52006756854715
        ]
      }
    },
    {
      "type": "Feature",
      "properties": {
        "norad_id": 33446,
        "name": "YAOGAN-4",
        "group": "dmc",
        "lat": -12.097803876638228,
        "lon": -73.56921332653016,
        "alt_km": 619.6570867856062,
        "timestamp": "2025-12-20T16:47:35.957776+00:00",
        "meta_object_name": "YAOGAN-4",
        "meta_object_id": "2008-061A",
        "meta_epoch": "2025-12-20T07:07:49.060704",
        "meta_mean_motion": 14.82702731,
        "meta_eccentricity": 0.0013118,
        "meta_inclination": 97.9192,
        "meta_ra_of_asc_node": 284.3224,
        "meta_arg_of_pericenter": 296.7402,
        "meta_mean_anomaly": 63.2469,
        "meta_ephemeris_type": 0,
        "meta_classification_type": "U",
        "meta_norad_cat_id": 33446,
        "meta_element_set_no": 999,
        "meta_rev_at_epoch": 91915,
        "meta_bstar": 0.00012371,
        "meta_mean_motion_dot": 9.46e-06,
        "meta_mean_motion_ddot": 0,
        "tle_line1": "1 33446U 08061A   25354.29709561  .00000946  00000+0  12371-3 0  9998",
        "tle_line2": "2 33446  97.9192 284.3224 0013118 296.7402  63.2469 14.82702731919158"
      },
      "geometry": {
        "type": "Point",
        "coordinates": [
          -73.56921332653016,
          -12.097803876638228
        ]
      }
    },
    {
      "type": "Feature",
      "properties": {
        "norad_id": 35681,
        "name": "DEIMOS-1",
        "group": "dmc",
        "lat": -74.17675990539685,
        "lon": -53.641401146412534,
        "alt_km": 654.3828972088459,
        "timestamp": "2025-12-20T16:47:35.957787+00:00",
        "meta_object_name": "DEIMOS-1",
        "meta_object_id": "2009-041A",
        "meta_epoch": "2025-12-20T12:22:45.704064",
        "meta_mean_motion": 14.74964084,
        "meta_eccentricity": 0.000259,
        "meta_inclination": 97.7143,
        "meta_ra_of_asc_node": 154.7567,
        "meta_arg_of_pericenter": 67.2267,
        "meta_mean_anomaly": 292.9216,
        "meta_ephemeris_type": 0,
        "meta_classification_type": "U",
        "meta_norad_cat_id": 35681,
        "meta_element_set_no": 999,
        "meta_rev_at_epoch": 88054,
        "meta_bstar": 9.3301e-05,
        "meta_mean_motion_dot": 5.8e-06,
        "meta_mean_motion_ddot": 0,
        "tle_line1": "1 35681U 09041A   25354.51580676  .00000580  00000+0  93301-4 0  9996",
        "tle_line2": "2 35681  97.7143 154.7567 0002590  67.2267 292.9216 14.74964084880540"
      },
      "geometry": {
        "type": "Point",
        "coordinates": [
          -53.641401146412534,
          -74.17675990539685
        ]
      }
    },
    {
      "type": "Feature",
      "properties": {
        "norad_id": 35683,
        "name": "UK-DMC 2",
        "group": "dmc",
        "lat": -68.15099396766324,
        "lon": 149.52035501049573,
        "alt_km": 651.4211581208756,
        "timestamp": "2025-12-20T16:47:35.957798+00:00",
        "meta_object_name": "UK-DMC 2",
        "meta_object_id": "2009-041C",
        "meta_epoch": "2025-12-20T12:13:33.258144",
        "meta_mean_motion": 14.7563729,
        "meta_eccentricity": 0.0001527,
        "meta_inclination": 97.8562,
        "meta_ra_of_asc_node": 129.1929,
        "meta_arg_of_pericenter": 94.312,
        "meta_mean_anomaly": 265.8264,
        "meta_ephemeris_type": 0,
        "meta_classification_type": "U",
        "meta_norad_cat_id": 35683,
        "meta_element_set_no": 999,
        "meta_rev_at_epoch": 88021,
        "meta_bstar": 0.00010313,
        "meta_mean_motion_dot": 6.55e-06,
        "meta_mean_motion_ddot": 0,
        "tle_line1": "1 35683U 09041C   25354.50941271  .00000655  00000+0  10313-3 0  9993",
        "tle_line2": "2 35683  97.8562 129.1929 0001527  94.3120 265.8264 14.75637290880217"
      },
      "geometry": {
        "type": "Point",
        "coordinates": [
          149.52035501049573,
          -68.15099396766324
        ]
      }
    },
    {
      "type": "Feature",
      "properties": {
        "norad_id": 40715,
        "name": "DMC3-FM1",
        "group": "dmc",
        "lat": -77.61056182754507,
        "lon": 3.7659538498187954,
        "alt_km": 616.925065596557,
        "timestamp": "2025-12-20T16:47:35.957809+00:00",
        "meta_object_name": "DMC3-FM1",
        "meta_object_id": "2015-032A",
        "meta_epoch": "2025-12-20T14:00:29.911392",
        "meta_mean_motion": 14.85451326,
        "meta_eccentricity": 0.00042,
        "meta_inclination": 97.669,
        "meta_ra_of_asc_node": 221.4897,
        "meta_arg_of_pericenter": 288.7246,
        "meta_mean_anomaly": 71.3513,
        "meta_ephemeris_type": 0,
        "meta_classification_type": "U",
        "meta_norad_cat_id": 40715,
        "meta_element_set_no": 999,
        "meta_rev_at_epoch": 56339,
        "meta_bstar": 5.4565e-05,
        "meta_mean_motion_dot": 4.19e-06,
        "meta_mean_motion_ddot": 0,
        "tle_line1": "1 40715U 15032A   25354.58367953  .00000419  00000+0  54565-4 0  9995",
        "tle_line2": "2 40715  97.6690 221.4897 0004200 288.7246  71.3513 14.85451326563397"
      },
      "geometry": {
        "type": "Point",
        "coordinates": [
          3.7659538498187954,
          -77.61056182754507
        ]
      }
    },
    {
      "type": "Feature",
      "properties": {
        "norad_id": 40716,
        "name": "DMC3-FM2",
        "group": "dmc",
        "lat": 39.43270880396211,
        "lon": 49.4182967513832,
        "alt_km": 612.1567877330917,
        "timestamp": "2025-12-20T16:47:35.957820+00:00",
        "meta_object_name": "DMC3-FM2",
        "meta_object_id": "2015-032B",
        "meta_epoch": "2025-12-20T12:55:52.646592",
        "meta_mean_motion": 14.85455822,
        "meta_eccentricity": 0.0004702,
        "meta_inclination": 97.675,
        "meta_ra_of_asc_node": 222.8961,
        "meta_arg_of_pericenter": 295.9181,
        "meta_mean_anomaly": 64.155,
        "meta_ephemeris_type": 0,
        "meta_classification_type": "U",
        "meta_norad_cat_id": 40716,
        "meta_element_set_no": 999,
        "meta_rev_at_epoch": 56338,
        "meta_bstar": 0.00012544,
        "meta_mean_motion_dot": 1.03e-05,
        "meta_mean_motion_ddot": 0,
        "tle_line1": "1 40716U 15032B   25354.53880378  .00001030  00000+0  12544-3 0  9992",
        "tle_line2": "2 40716  97.6750 222.8961 0004702 295.9181  64.1550 14.85455822563382"
      },
      "geometry": {
        "type": "Point",
        "coordinates": [
          49.4182967513832,
          39.43270880396211
        ]
      }
    },
    {
      "type": "Feature",
      "properties": {
        "norad_id": 40717,
        "name": "DMC3-FM3",
        "group": "dmc",
        "lat": 23.86884648244772,
        "lon": -138.73379858673445,
        "alt_km": 611.507403738643,
        "timestamp": "2025-12-20T16:47:35.957829+00:00",
        "meta_object_name": "DMC3-FM3",
        "meta_object_id": "2015-032C",
        "meta_epoch": "2025-12-20T11:50:06.584064",
        "meta_mean_motion": 14.85440691,
        "meta_eccentricity": 0.000408,
        "meta_inclination": 97.6805,
        "meta_ra_of_asc_node": 224.4903,
        "meta_arg_of_pericenter": 298.6495,
        "meta_mean_anomaly": 61.431,
        "meta_ephemeris_type": 0,
        "meta_classification_type": "U",
        "meta_norad_cat_id": 40717,
        "meta_element_set_no": 999,
        "meta_rev_at_epoch": 56338,
        "meta_bstar": 3.1879e-05,
        "meta_mean_motion_dot": 2.23e-06,
        "meta_mean_motion_ddot": 0,
        "tle_line1": "1 40717U 15032C   25354.49313176  .00000223  00000+0  31879-4 0  9991",
        "tle_line2": "2 40717  97.6805 224.4903 0004080 298.6495  61.4310 14.85440691563387"
      },
      "geometry": {
        "type": "Point",
        "coordinates": [
          -138.73379858673445,
          23.86884648244772
        ]
      }
    }
  ]
}